{"type": "FeatureCollection", "features": [ {"type": "Feature", "properties": {"norad_id": 34375, "name": "IRIDIUM 33 DEB", "group": "iridium-33-debris", "lat": 28.355732773037122, "lon": -179.69990283781397, "alt_km": 798.1319991173132, "timestamp": "2025-12-23T11:34:48.545945+00:00", "meta": {"OBJECT_NAME": "IRIDIUM 33 DEB", "OBJECT_ID": "1997-051FT", "EPOCH": "2025-12-22T12:02:26.342592", "MEAN_MOTION": 14.18009533, "ECCENTRICITY": 0.01037059, "INCLINATION": 86.4323, "RA_OF_ASC_NODE": 178.7659, "ARG_OF_PERICENTER": 96.2041, "MEAN_ANOMALY": 329.6113, "EPHEMERIS_TYPE": 0, "CLASSIFICATION_TYPE": "U", "NORAD_CAT_ID": 34375, "ELEMENT_SET_NO": 999, "REV_AT_EPOCH": 86850, "BSTAR": 0.00038502204, "MEAN_MOTION_DOT": 8.51e-06, "MEAN_MOTION_DDOT": 0}, "tle": {"line1": "1 34375U 97051FT  25356.50169378  .00000851  00000+0  38502-3 0  9998", "line2": "2 34375  86.4323 178.7659 0103705  96.2041 329.6113 14.18009533868507"}}, "geometry": {"type": "Point", "coordinates": [-179.69990283781397, 28.355732773037122]}}, {"type": "Feature", "properties": {"norad_id": 34376, "name": "IRIDIUM 33 DEB", "group": "iridium-33-debris", "lat": -34.366019976199524, "lon": -0.828520098344977, "alt_km": 710.1121089001117, "timestamp": "2025-12-23T11:34:48.545954+00:00", "meta": {"OBJECT_NAME": "IRIDIUM 33 DEB", "OBJECT_ID": "1997-051FU", "EPOCH": "2025-12-22T17:40:39.041472", "MEAN_MOTION": 14.62694295, "ECCENTRICITY": 0.00282683, "INCLINATION": 86.2978, "RA_OF_ASC_NODE": 2.0446, "ARG_OF_PERICENTER": 133.8099, "MEAN_ANOMALY": 226.5457, "EPHEMERIS_TYPE": 0, "CLASSIFICATION_TYPE": "U", "NORAD_CAT_ID": 34376, "ELEMENT_SET_NO": 999, "REV_AT_EPOCH": 88153, "BSTAR": 0.0014444618, "MEAN_MOTION_DOT": 7.418e-05, "MEAN_MOTION_DDOT": 0}, "tle": {"line1": "1 34376U 97051FU  25356.73656298  .00007418  00000+0  14445-2 0  9991", "line2": "2 34376  86.2978   2.0446 0028268 133.8099 226.5457 14.62694295881534"}}, "geometry": {"type": "Point", "coordinates": [-0.828520098344977, -34.366019976199524]}}, {"type": "Feature", "properties": {"norad_id": 34486, "name": "IRIDIUM 33 DEB", "group": "iridium-33-debris", "lat": 31.53063138398676, "lon": 9.282607538831272, "alt_km": 570.4934720552474, "timestamp": "2025-12-23T11:34:48.545964+00:00", "meta": {"OBJECT_NAME": "IRIDIUM 33 DEB", "OBJECT_ID": "1997-051GB", "EPOCH": "2025-12-22T11:56:52.779840", "MEAN_MOTION": 14.9620636, "ECCENTRICITY": 0.00139165, "INCLINATION": 86.3926, "RA_OF_ASC_NODE": 7.5191, "ARG_OF_PERICENTER": 84.4454, "MEAN_ANOMALY": 47.0404, "EPHEMERIS_TYPE": 0, "CLASSIFICATION_TYPE": "U", "NORAD_CAT_ID": 34486, "ELEMENT_SET_NO": 999, "REV_AT_EPOCH": 89132, "BSTAR": 0.002364133, "MEAN_MOTION_DOT": 0.00026794, "MEAN_MOTION_DDOT": 0}, "tle": {"line1": "1 34486U 97051GB  25356.49783310  .00026794  00000+0  23641-2 0  9998", "line2": "2 34486  86.3926   7.5191 0013916  84.4454  47.0404 14.96206360891322"}}, "geometry": {"type": "Point", "coordinates": [9.282607538831272, 31.53063138398676]}}, {"type": "Feature", "properties": {"norad_id": 34487, "name": "IRIDIUM 33 DEB", "group": "iridium-33-debris", "lat": 11.61867911484313, "lon": -173.0017683723793, "alt_km": 742.42726935872, "timestamp": "2025-12-23T11:34:48.545973+00:00", "meta": {"OBJECT_NAME": "IRIDIUM 33 DEB", "OBJECT_ID": "1997-051GC", "EPOCH": "2025-12-23T01:04:13.236096", "MEAN_MOTION": 14.43228898, "ECCENTRICITY": 0.0033244, "INCLINATION": 86.3429, "RA_OF_ASC_NODE": 7.9402, "ARG_OF_PERICENTER": 96.3176, "MEAN_ANOMALY": 317.7996, "EPHEMERIS_TYPE": 0, "CLASSIFICATION_TYPE": "U", "NORAD_CAT_ID": 34487, "ELEMENT_SET_NO": 999, "REV_AT_EPOCH": 88397, "BSTAR": 0.00017561, "MEAN_MOTION_DOT": 6.15e-06, "MEAN_MOTION_DDOT": 0}, "tle": {"line1": "1 34487U 97051GC  25357.04459764  .00000615  00000+0  17561-3 0  9993", "line2": "2 34487  86.3429   7.9402 0033244  96.3176 317.7996 14.43228898883976"}}, "geometry": {"type": "Point", "coordinates": [-173.0017683723793, 11.61867911484313]}}, {"type": "Feature", "properties": {"norad_id": 34488, "name": "IRIDIUM 33 DEB", "group": "iridium-33-debris", "lat": -84.07881381535853, "lon": -97.78569694671734, "alt_km": 480.6243562525842, "timestamp": "2025-12-23T11:34:48.545983+00:00", "meta": {"OBJECT_NAME": "IRIDIUM 33 DEB", "OBJECT_ID": "1997-051GD", "EPOCH": "2025-12-22T20:16:29.836992", "MEAN_MOTION": 15.31851895, "ECCENTRICITY": 0.00102762, "INCLINATION": 86.3272, "RA_OF_ASC_NODE": 300.8002, "ARG_OF_PERICENTER": 36.0994, "MEAN_ANOMALY": 324.0947, "EPHEMERIS_TYPE": 0, "CLASSIFICATION_TYPE": "U", "NORAD_CAT_ID": 34488, "ELEMENT_SET_NO": 999, "REV_AT_EPOCH": 89394, "BSTAR": 0.0043586742, "MEAN_MOTION_DOT": 0.00136379, "MEAN_MOTION_DDOT": 0}, "tle": {"line1": "1 34488U 97051GD  25356.84478978  .00136379  00000+0  43587-2 0  9992", "line2": "2 34488  86.3272 300.8002 0010276  36.0994 324.0947 15.31851895893945"}}, "geometry": {"type": "Point", "coordinates": [-97.78569694671734, -84.07881381535853]}}, {"type": "Feature", "properties": {"norad_id": 34492, "name": "IRIDIUM 33 DEB", "group": "iridium-33-debris", "lat": -52.0718482764543, "lon": -34.25654585159888, "alt_km": 844.2098085131884, "timestamp": "2025-12-23T11:34:48.545992+00:00", "meta": {"OBJECT_NAME": "IRIDIUM 33 DEB", "OBJECT_ID": "1997-051GH", "EPOCH": "2025-12-22T16:27:23.909760", "MEAN_MOTION": 14.25892201, "ECCENTRICITY": 0.01887746, "INCLINATION": 86.4712, "RA_OF_ASC_NODE": 330.6072, "ARG_OF_PERICENTER": 205.8586, "MEAN_ANOMALY": 332.2477, "EPHEMERIS_TYPE": 0, "CLASSIFICATION_TYPE": "U", "NORAD_CAT_ID": 34492, "ELEMENT_SET_NO": 999, "REV_AT_EPOCH": 85200, "BSTAR": 0.0029608099, "MEAN_MOTION_DOT": 8.523e-05, "MEAN_MOTION_DDOT": 0}, "tle": {"line1": "1 34492U 97051GH  25356.68569340  .00008523  00000+0  29608-2 0  9990", "line2": "2 34492  86.4712 330.6072 0188774 205.8586 332.2477 14.25892201852009"}}, "geometry": {"type": "Point", "coordinates": [-34.25654585159888, -52.0718482764543]}}, {"type": "Feature", "properties": {"norad_id": 34497, "name": "IRIDIUM 33 DEB", "group": "iridium-33-debris", "lat": -66.67655187413136, "lon": -123.50184199606315, "alt_km": 777.0463205242113, "timestamp": "2025-12-23T11:34:48.546002+00:00", "meta": {"OBJECT_NAME": "IRIDIUM 33 DEB", "OBJECT_ID": "1997-051GN", "EPOCH": "2025-12-22T21:33:03.135744", "MEAN_MOTION": 14.27482363, "ECCENTRICITY": 0.0078048, "INCLINATION": 86.2769, "RA_OF_ASC_NODE": 48.0617, "ARG_OF_PERICENTER": 306.2683, "MEAN_ANOMALY": 179.2918, "EPHEMERIS_TYPE": 0, "CLASSIFICATION_TYPE": "U", "NORAD_CAT_ID": 34497, "ELEMENT_SET_NO": 999, "REV_AT_EPOCH": 87028, "BSTAR": 0.00056228, "MEAN_MOTION_DOT": 1.443e-05, "MEAN_MOTION_DDOT": 0}, "tle": {"line1": "1 34497U 97051GN  25356.89795296  .00001443  00000+0  56228-3 0  9992", "line2": "2 34497  86.2769  48.0617 0078048 306.2683 179.2918 14.27482363870280"}}, "geometry": {"type": "Point", "coordinates": [-123.50184199606315, -66.67655187413136]}}, {"type": "Feature", "properties": {"norad_id": 34508, "name": "IRIDIUM 33 DEB", "group": "iridium-33-debris", "lat": 69.60828514877782, "lon": -91.74124084883077, "alt_km": 714.8461077440497, "timestamp": "2025-12-23T11:34:48.546011+00:00", "meta": {"OBJECT_NAME": "IRIDIUM 33 DEB", "OBJECT_ID": "1997-051GZ", "EPOCH": "2025-12-22T06:41:24.031968", "MEAN_MOTION": 14.38495257, "ECCENTRICITY": 0.00666176, "INCLINATION": 86.3708, "RA_OF_ASC_NODE": 98.5996, "ARG_OF_PERICENTER": 142.363, "MEAN_ANOMALY": 218.2258, "EPHEMERIS_TYPE": 0, "CLASSIFICATION_TYPE": "U", "NORAD_CAT_ID": 34508, "ELEMENT_SET_NO": 999, "REV_AT_EPOCH": 87446, "BSTAR": 0.0011650926, "MEAN_MOTION_DOT": 3.671e-05, "MEAN_MOTION_DDOT": 0}, "tle": {"line1": "1 34508U 97051GZ  25356.27875037  .00003671  00000+0  11651-2 0  9994", "line2": "2 34508  86.3708  98.5996 0066617 142.3630 218.2258 14.38495257874460"}}, "geometry": {"type": "Point", "coordinates": [-91.74124084883077, 69.60828514877782]}}, {"type": "Feature", "properties": {"norad_id": 34521, "name": "IRIDIUM 33 DEB", "group": "iridium-33-debris", "lat": 8.500440870598766, "lon": -154.72473311142352, "alt_km": 681.9458868872252, "timestamp": "2025-12-23T11:34:48.546020+00:00", "meta": {"OBJECT_NAME": "IRIDIUM 33 DEB", "OBJECT_ID": "1997-051HN", "EPOCH": "2025-12-23T00:57:12.291840", "MEAN_MOTION": 14.63446823, "ECCENTRICITY": 0.0002868, "INCLINATION": 86.3784, "RA_OF_ASC_NODE": 26.0126, "ARG_OF_PERICENTER": 172.6543, "MEAN_ANOMALY": 187.4712, "EPHEMERIS_TYPE": 0, "CLASSIFICATION_TYPE": "U", "NORAD_CAT_ID": 34521, "ELEMENT_SET_NO": 999, "REV_AT_EPOCH": 88623, "BSTAR": 0.00088486, "MEAN_MOTION_DOT": 4.6e-05, "MEAN_MOTION_DDOT": 0}, "tle": {"line1": "1 34521U 97051HN  25357.03972560  .00004600  00000+0  88486-3 0  9997", "line2": "2 34521  86.3784  26.0126 0002868 172.6543 187.4712 14.63446823886230"}}, "geometry": {"type": "Point", "coordinates": [-154.72473311142352, 8.500440870598766]}}, {"type": "Feature", "properties": {"norad_id": 34525, "name": "IRIDIUM 33 DEB", "group": "iridium-33-debris", "lat": -80.28972142849099, "lon": 20.49324109025662, "alt_km": 760.2317314304346, "timestamp": "2025-12-23T11:34:48.546029+00:00", "meta": {"OBJECT_NAME": "IRIDIUM 33 DEB", "OBJECT_ID": "1997-051HS", "EPOCH": "2025-12-23T02:06:13.696128", "MEAN_MOTION": 14.42929063, "ECCENTRICITY": 0.0006344, "INCLINATION": 86.3718, "RA_OF_ASC_NODE": 42.4266, "ARG_OF_PERICENTER": 71.3157, "MEAN_ANOMALY": 318.0037, "EPHEMERIS_TYPE": 0, "CLASSIFICATION_TYPE": "U", "NORAD_CAT_ID": 34525, "ELEMENT_SET_NO": 999, "REV_AT_EPOCH": 88237, "BSTAR": 0.00032314, "MEAN_MOTION_DOT": 1.1e-05, "MEAN_MOTION_DDOT": 0}, "tle": {"line1": "1 34525U 97051HS  25357.08765852  .00001100  00000+0  32314-3 0  9991", "line2": "2 34525  86.3718  42.4266 0006344  71.3157 318.0037 14.42929063882379"}}, "geometry": {"type": "Point", "coordinates": [20.49324109025662, -80.28972142849099]}}]}